start=new Date('2021-08-31T00:00:00.000Z').valueOf();
sats=[{"TIME_SYSTEM":"UTC","MEAN_MOTION_DDOT":"0.0000000000000","RCS_SIZE":"LARGE","EPHEMERIS_TYPE":"0","SEMIMAJOR_AXIS":"6925.379","INCLINATION":"53.0568","DECAY_DATE":null,"PERIAPSIS":"546.371","RA_OF_ASC_NODE":"3.5566","COUNTRY_CODE":"US","TLE_LINE2":"2 45380  53.0568   3.5566 0001261 104.7481 255.3648 15.06390077 80985","REV_AT_EPOCH":"8098","GP_ID":"183729354","APOAPSIS":"548.117","MEAN_MOTION_DOT":"-0.00002122","MEAN_ANOMALY":"255.3648","OBJECT_ID":"2020-019W","EPOCH":"2021-08-30T12:12:11.693952","TLE_LINE1":"1 45380U 20019W   21242.50846868 -.00002122  00000-0 -12362-3 0  9994","SITE":"AFETR","CENTER_NAME":"EARTH","CLASSIFICATION_TYPE":"U","OBJECT_TYPE":"PAYLOAD","REF_FRAME":"TEME","ECCENTRICITY":"0.00012610","FILE":"3105635","MEAN_ELEMENT_THEORY":"SGP4","LAUNCH_DATE":"2020-03-18","ELEMENT_SET_NO":"999","PERIOD":"95.593","ARG_OF_PERICENTER":"104.7481","MEAN_MOTION":"15.06390077","OBJECT_NAME":"STARLINK-1207","NORAD_CAT_ID":"45380","BSTAR":"-0.00012362000000"},{"TIME_SYSTEM":"UTC","MEAN_MOTION_DDOT":"0.0000000000000","RCS_SIZE":"LARGE","EPHEMERIS_TYPE":"0","SEMIMAJOR_AXIS":"6925.346","INCLINATION":"53.0550","DECAY_DATE":null,"PERIAPSIS":"546.240","RA_OF_ASC_NODE":"3.5131","COUNTRY_CODE":"US","TLE_LINE2":"2 45381  53.0550   3.5131 0001402 114.6703 245.4432 15.06400803 80989","REV_AT_EPOCH":"8098","GP_ID":"183730605","MEAN_MOTION_DOT":"-0.00001113","APOAPSIS":"548.182","MEAN_ANOMALY":"245.4432","OBJECT_ID":"2020-019X","EPOCH":"2021-08-30T12:28:06.541824","TLE_LINE1":"1 45381U 20019X   21242.51952016 -.00001113  00000-0 -55835-4 0  9991","SITE":"AFETR","CENTER_NAME":"EARTH","REF_FRAME":"TEME","OBJECT_TYPE":"PAYLOAD","CLASSIFICATION_TYPE":"U","ECCENTRICITY":"0.00014020","MEAN_ELEMENT_THEORY":"SGP4","FILE":"3105635","LAUNCH_DATE":"2020-03-18","ELEMENT_SET_NO":"999","PERIOD":"95.592","ARG_OF_PERICENTER":"114.6703","MEAN_MOTION":"15.06400803","OBJECT_NAME":"STARLINK-1258","NORAD_CAT_ID":"45381","BSTAR":"-0.00005583500000"},{"MEAN_ANOMALY":"245.8040","APOAPSIS":"548.106","MEAN_MOTION_DOT":"-0.00001436","GP_ID":"183730352","REV_AT_EPOCH":"8081","TLE_LINE2":"2 45382  53.0564   3.3096 0001256 114.3080 245.8040 15.06392612 80814","COUNTRY_CODE":"US","RA_OF_ASC_NODE":"3.3096","PERIAPSIS":"546.366","DECAY_DATE":null,"INCLINATION":"53.0564","SEMIMAJOR_AXIS":"6925.371","EPHEMERIS_TYPE":"0","RCS_SIZE":"LARGE","MEAN_MOTION_DDOT":"0.0000000000000","TIME_SYSTEM":"UTC","BSTAR":"-0.00007753800000","NORAD_CAT_ID":"45382","OBJECT_NAME":"STARLINK-1264","ARG_OF_PERICENTER":"114.3080","PERIOD":"95.593","MEAN_MOTION":"15.06392612","ELEMENT_SET_NO":"999","FILE":"3105635","LAUNCH_DATE":"2020-03-18","MEAN_ELEMENT_THEORY":"SGP4","ECCENTRICITY":"0.00012560","REF_FRAME":"TEME","OBJECT_TYPE":"PAYLOAD","CLASSIFICATION_TYPE":"U","CENTER_NAME":"EARTH","SITE":"AFETR","TLE_LINE1":"1 45382U 20019Y   21242.56375342 -.00001436  00000-0 -77538-4 0  9990","EPOCH":"2021-08-30T13:31:48.295488","OBJECT_ID":"2020-019Y"},{"RCS_SIZE":"LARGE","MEAN_MOTION_DDOT":"0.0000000000000","EPHEMERIS_TYPE":"0","TIME_SYSTEM":"UTC","DECAY_DATE":null,"RA_OF_ASC_NODE":"2.3527","PERIAPSIS":"546.139","SEMIMAJOR_AXIS":"6925.339","INCLINATION":"53.0546","TLE_LINE2":"2 45383  53.0546   2.3527 0001537 124.1964 235.9171 15.06403184 81021","COUNTRY_CODE":"US","APOAPSIS":"548.268","MEAN_MOTION_DOT":"-0.00002102","MEAN_ANOMALY":"235.9171","REV_AT_EPOCH":"8102","GP_ID":"183736746","OBJECT_ID":"2020-019Z","CLASSIFICATION_TYPE":"U","OBJECT_TYPE":"PAYLOAD","REF_FRAME":"TEME","EPOCH":"2021-08-30T18:39:40.382208","CENTER_NAME":"EARTH","SITE":"AFETR","TLE_LINE1":"1 45383U 20019Z   21242.77755072 -.00002102  00000-0 -12227-3 0  9990","OBJECT_NAME":"STARLINK-1266","ARG_OF_PERICENTER":"124.1964","PERIOD":"95.592","MEAN_MOTION":"15.06403184","NORAD_CAT_ID":"45383","ECCENTRICITY":"0.00015370","ELEMENT_SET_NO":"999","LAUNCH_DATE":"2020-03-18","FILE":"3105783","MEAN_ELEMENT_THEORY":"SGP4","BSTAR":"-0.00012227000000"},{"INCLINATION":"53.0538","SEMIMAJOR_AXIS":"6925.354","PERIAPSIS":"546.238","RA_OF_ASC_NODE":"3.2799","DECAY_DATE":null,"TIME_SYSTEM":"UTC","EPHEMERIS_TYPE":"0","MEAN_MOTION_DDOT":"0.0000000000000","RCS_SIZE":"LARGE","GP_ID":"183729854","REV_AT_EPOCH":"8099","MEAN_ANOMALY":"238.2114","APOAPSIS":"548.201","MEAN_MOTION_DOT":"-0.00000665","COUNTRY_CODE":"US","TLE_LINE2":"2 45384  53.0538   3.2799 0001417 121.9013 238.2114 15.06398087 80994","TLE_LINE1":"1 45384U 20019AA  21242.56743174 -.00000665  00000-0 -25724-4 0  9997","SITE":"AFETR","CENTER_NAME":"EARTH","EPOCH":"2021-08-30T13:37:06.102336","OBJECT_TYPE":"PAYLOAD","CLASSIFICATION_TYPE":"U","REF_FRAME":"TEME","OBJECT_ID":"2020-019AA","BSTAR":"-0.00002572400000","MEAN_ELEMENT_THEORY":"SGP4","FILE":"3105635","LAUNCH_DATE":"2020-03-18","ELEMENT_SET_NO":"999","ECCENTRICITY":"0.00014170","NORAD_CAT_ID":"45384","PERIOD":"95.592","ARG_OF_PERICENTER":"121.9013","MEAN_MOTION":"15.06398087","OBJECT_NAME":"STARLINK-1267"},{"REV_AT_EPOCH":"8098","GP_ID":"183730106","APOAPSIS":"548.298","MEAN_MOTION_DOT":"-0.00001217","MEAN_ANOMALY":"257.7485","COUNTRY_CODE":"US","TLE_LINE2":"2 45386  53.0548   3.5761 0001547 102.3677 257.7485 15.06395602 80988","SEMIMAJOR_AXIS":"6925.362","INCLINATION":"53.0548","DECAY_DATE":null,"PERIAPSIS":"546.156","RA_OF_ASC_NODE":"3.5761","TIME_SYSTEM":"UTC","MEAN_MOTION_DDOT":"0.0000000000000","RCS_SIZE":"LARGE","EPHEMERIS_TYPE":"0","BSTAR":"-0.00006279100000","ECCENTRICITY":"0.00015470","MEAN_ELEMENT_THEORY":"SGP4","FILE":"3105635","LAUNCH_DATE":"2020-03-18","ELEMENT_SET_NO":"999","PERIOD":"95.592","ARG_OF_PERICENTER":"102.3677","MEAN_MOTION":"15.06395602","OBJECT_NAME":"STARLINK-1272","NORAD_CAT_ID":"45386","EPOCH":"2021-08-30T12:06:52.520256","TLE_LINE1":"1 45386U 20019AC  21242.50477454 -.00001217  00000-0 -62791-4 0  9997","SITE":"AFETR","CENTER_NAME":"EARTH","CLASSIFICATION_TYPE":"U","OBJECT_TYPE":"PAYLOAD","REF_FRAME":"TEME","OBJECT_ID":"2020-019AC"},{"OBJECT_ID":"2020-019AD","TLE_LINE1":"1 45387U 20019AD  21242.52689685 -.00001720  00000-0 -96655-4 0  9996","SITE":"AFETR","CENTER_NAME":"EARTH","EPOCH":"2021-08-30T12:38:43.887840","OBJECT_TYPE":"PAYLOAD","CLASSIFICATION_TYPE":"U","REF_FRAME":"TEME","FILE":"3105635","LAUNCH_DATE":"2020-03-18","MEAN_ELEMENT_THEORY":"SGP4","ELEMENT_SET_NO":"999","ECCENTRICITY":"0.00014660","NORAD_CAT_ID":"45387","PERIOD":"95.593","ARG_OF_PERICENTER":"104.6733","MEAN_MOTION":"15.06391433","OBJECT_NAME":"STARLINK-1274","BSTAR":"-0.00009665500000","TIME_SYSTEM":"UTC","EPHEMERIS_TYPE":"0","MEAN_MOTION_DDOT":"0.0000000000000","RCS_SIZE":"LARGE","INCLINATION":"53.0554","SEMIMAJOR_AXIS":"6925.375","PERIAPSIS":"546.225","RA_OF_ASC_NODE":"3.4784","DECAY_DATE":null,"COUNTRY_CODE":"US","TLE_LINE2":"2 45387  53.0554   3.4784 0001466 104.6733 255.4419 15.06391433 80988","GP_ID":"183730852","REV_AT_EPOCH":"8098","MEAN_ANOMALY":"255.4419","MEAN_MOTION_DOT":"-0.00001720","APOAPSIS":"548.255"},{"INCLINATION":"53.0556","SEMIMAJOR_AXIS":"6925.390","PERIAPSIS":"546.320","RA_OF_ASC_NODE":"23.3120","DECAY_DATE":null,"TIME_SYSTEM":"UTC","EPHEMERIS_TYPE":"0","MEAN_MOTION_DDOT":"0.0000000000000","RCS_SIZE":"LARGE","GP_ID":"183729105","REV_AT_EPOCH":"8070","MEAN_ANOMALY":"253.9768","MEAN_MOTION_DOT":"-0.00001759","APOAPSIS":"548.190","COUNTRY_CODE":"US","TLE_LINE2":"2 45388  53.0556  23.3120 0001350 106.1370 253.9768 15.06386564 80701","TLE_LINE1":"1 45388U 20019AE  21242.56192024 -.00001759  00000-0 -99275-4 0  9990","SITE":"AFETR","CENTER_NAME":"EARTH","EPOCH":"2021-08-30T13:29:09.908736","CLASSIFICATION_TYPE":"U","OBJECT_TYPE":"PAYLOAD","REF_FRAME":"TEME","OBJECT_ID":"2020-019AE","BSTAR":"-0.00009927500000","FILE":"3105635","MEAN_ELEMENT_THEORY":"SGP4","LAUNCH_DATE":"2020-03-18","ELEMENT_SET_NO":"999","ECCENTRICITY":"0.00013500","NORAD_CAT_ID":"45388","PERIOD":"95.593","MEAN_MOTION":"15.06386564","ARG_OF_PERICENTER":"106.1370","OBJECT_NAME":"STARLINK-1280"},{"TLE_LINE2":"2 45389  53.0551   3.3977 0001144 117.5965 242.5140 15.06393979 80999","COUNTRY_CODE":"US","MEAN_ANOMALY":"242.5140","APOAPSIS":"548.024","MEAN_MOTION_DOT":"0.00000411","GP_ID":"183729355","REV_AT_EPOCH":"8099","EPHEMERIS_TYPE":"0","MEAN_MOTION_DDOT":"0.0000000000000","RCS_SIZE":"LARGE","TIME_SYSTEM":"UTC","PERIAPSIS":"546.440","RA_OF_ASC_NODE":"3.3977","DECAY_DATE":null,"INCLINATION":"53.0551","SEMIMAJOR_AXIS":"6925.367","NORAD_CAT_ID":"45389","MEAN_MOTION":"15.06393979","PERIOD":"95.593","ARG_OF_PERICENTER":"117.5965","OBJECT_NAME":"STARLINK-1283","FILE":"3105635","LAUNCH_DATE":"2020-03-18","MEAN_ELEMENT_THEORY":"SGP4","ELEMENT_SET_NO":"999","ECCENTRICITY":"0.00011440","BSTAR":"0.00004646200000","OBJECT_ID":"2020-019AF","OBJECT_TYPE":"PAYLOAD","CLASSIFICATION_TYPE":"U","REF_FRAME":"TEME","TLE_LINE1":"1 45389U 20019AF  21242.54163766  .00000411  00000-0  46462-4 0  9992","SITE":"AFETR","CENTER_NAME":"EARTH","EPOCH":"2021-08-30T12:59:57.493824"},{"REF_FRAME":"TEME","OBJECT_TYPE":"PAYLOAD","CLASSIFICATION_TYPE":"U","EPOCH":"2021-08-30T15:33:54.064224","TLE_LINE1":"1 45390U 20019AG  21242.64854241  .00000033  00000-0  21132-4 0  9997","SITE":"AFETR","CENTER_NAME":"EARTH","OBJECT_ID":"2020-019AG","BSTAR":"0.00002113200000","MEAN_MOTION":"15.06386195","PERIOD":"95.593","ARG_OF_PERICENTER":"116.7777","OBJECT_NAME":"STARLINK-1284","NORAD_CAT_ID":"45390","ECCENTRICITY":"0.00013590","FILE":"3105784","MEAN_ELEMENT_THEORY":"SGP4","LAUNCH_DATE":"2020-03-18","ELEMENT_SET_NO":"999","DECAY_DATE":null,"PERIAPSIS":"546.315","RA_OF_ASC_NODE":"2.9283","SEMIMAJOR_AXIS":"6925.391","INCLINATION":"53.0567","MEAN_MOTION_DDOT":"0.0000000000000","RCS_SIZE":"LARGE","EPHEMERIS_TYPE":"0","TIME_SYSTEM":"UTC","APOAPSIS":"548.197","MEAN_MOTION_DOT":"0.00000033","MEAN_ANOMALY":"243.3351","REV_AT_EPOCH":"8100","GP_ID":"183736768","TLE_LINE2":"2 45390  53.0567   2.9283 0001359 116.7777 243.3351 15.06386195 81001","COUNTRY_CODE":"US"}];
